{
  "type": "FeatureCollection",
  "features": [
    {
      "type": "Feature",
      "properties": {
        "norad_id": 39773,
        "name": "EUTELSAT 3B",
        "group": "eutelsat",
        "lat": 0.04851749237111355,
        "lon": 28.03041071611068,
        "alt_km": 35805.27545279778,
        "timestamp": "2025-12-03T20:47:57.888333+00:00",
        "meta_object_name": "EUTELSAT 3B",
        "meta_object_id": "2014-030A",
        "meta_epoch": "2025-12-03T08:38:05.151840",
        "meta_mean_motion": 1.00270778,
        "meta_eccentricity": 0.0004767,
        "meta_inclination": 0.0633,
        "meta_ra_of_asc_node": 2.1148,
        "meta_arg_of_pericenter": 225.8491,
        "meta_mean_anomaly": 337.1039,
        "meta_ephemeris_type": 0,
        "meta_classification_type": "U",
        "meta_norad_cat_id": 39773,
        "meta_element_set_no": 999,
        "meta_rev_at_epoch": 4210,
        "meta_bstar": 0,
        "meta_mean_motion_dot": 3.8e-07,
        "meta_mean_motion_ddot": 0,
        "tle_line1": "1 39773U 14030A   25337.35978185  .00000038  00000+0  00000+0 0  9992",
        "tle_line2": "2 39773   0.0633   2.1148 0004767 225.8491 337.1039  1.00270778 42109"
      },
      "geometry": {
        "type": "Point",
        "coordinates": [
          28.03041071611068,
          0.04851749237111355
        ]
      }
    },
    {
      "type": "Feature",
      "properties": {
        "norad_id": 40425,
        "name": "EUTELSAT 115 WEST B",
        "group": "eutelsat",
        "lat": 0.008550220539741622,
        "lon": -89.97858822074025,
        "alt_km": 35787.39801713674,
        "timestamp": "2025-12-03T20:47:57.888345+00:00",
        "meta_object_name": "EUTELSAT 115 WEST B",
        "meta_object_id": "2015-010B",
        "meta_epoch": "2025-12-02T23:30:40.501152",
        "meta_mean_motion": 1.00271793,
        "meta_eccentricity": 3.39e-05,
        "meta_inclination": 0.0139,
        "meta_ra_of_asc_node": 143.9078,
        "meta_arg_of_pericenter": 285.8537,
        "meta_mean_anomaly": 240.0881,
        "meta_ephemeris_type": 0,
        "meta_classification_type": "U",
        "meta_norad_cat_id": 40425,
        "meta_element_set_no": 999,
        "meta_rev_at_epoch": 3942,
        "meta_bstar": 0,
        "meta_mean_motion_dot": -6e-08,
        "meta_mean_motion_ddot": 0,
        "tle_line1": "1 40425U 15010B   25336.97963543 -.00000006  00000+0  00000+0 0  9992",
        "tle_line2": "2 40425   0.0139 143.9078 0000339 285.8537 240.0881  1.00271793 39426"
      },
      "geometry": {
        "type": "Point",
        "coordinates": [
          -89.97858822074025,
          0.008550220539741622
        ]
      }
    },
    {
      "type": "Feature",
      "properties": {
        "norad_id": 40875,
        "name": "EUTELSAT 8 WEST B",
        "group": "eutelsat",
        "lat": 0.05207744488787585,
        "lon": 16.96404534882835,
        "alt_km": 35795.46044756227,
        "timestamp": "2025-12-03T20:47:57.888358+00:00",
        "meta_object_name": "EUTELSAT 8 WEST B",
        "meta_object_id": "2015-039B",
        "meta_epoch": "2025-12-03T10:17:25.637280",
        "meta_mean_motion": 1.00271591,
        "meta_eccentricity": 0.0004135,
        "meta_inclination": 0.0656,
        "meta_ra_of_asc_node": 347.3797,
        "meta_arg_of_pericenter": 267.4341,
        "meta_mean_anomaly": 324.0684,
        "meta_ephemeris_type": 0,
        "meta_classification_type": "U",
        "meta_norad_cat_id": 40875,
        "meta_element_set_no": 999,
        "meta_rev_at_epoch": 3769,
        "meta_bstar": 0,
        "meta_mean_motion_dot": -4.7e-07,
        "meta_mean_motion_ddot": 0,
        "tle_line1": "1 40875U 15039B   25337.42876895 -.00000047  00000+0  00000+0 0  9991",
        "tle_line2": "2 40875   0.0656 347.3797 0004135 267.4341 324.0684  1.00271591 37691"
      },
      "geometry": {
        "type": "Point",
        "coordinates": [
          16.96404534882835,
          0.05207744488787585
        ]
      }
    },
    {
      "type": "Feature",
      "properties": {
        "norad_id": 41310,
        "name": "EUTELSAT 9B",
        "group": "eutelsat",
        "lat": -0.012012128641833184,
        "lon": 33.946485567351985,
        "alt_km": 35799.32594819872,
        "timestamp": "2025-12-03T20:47:57.888370+00:00",
        "meta_object_name": "EUTELSAT 9B",
        "meta_object_id": "2016-005A",
        "meta_epoch": "2025-12-03T08:39:42.496992",
        "meta_mean_motion": 1.00271274,
        "meta_eccentricity": 0.0004901,
        "meta_inclination": 0.0656,
        "meta_ra_of_asc_node": 75.0205,
        "meta_arg_of_pericenter": 189.7791,
        "meta_mean_anomaly": 306.5652,
        "meta_ephemeris_type": 0,
        "meta_classification_type": "U",
        "meta_norad_cat_id": 41310,
        "meta_element_set_no": 999,
        "meta_rev_at_epoch": 3615,
        "meta_bstar": 0,
        "meta_mean_motion_dot": 8e-07,
        "meta_mean_motion_ddot": 0,
        "tle_line1": "1 41310U 16005A   25337.36090853  .00000080  00000+0  00000+0 0  9991",
        "tle_line2": "2 41310   0.0656  75.0205 0004901 189.7791 306.5652  1.00271274 36159"
      },
      "geometry": {
        "type": "Point",
        "coordinates": [
          33.946485567351985,
          -0.012012128641833184
        ]
      }
    },
    {
      "type": "Feature",
      "properties": {
        "norad_id": 41382,
        "name": "EUTELSAT 65 WEST A",
        "group": "eutelsat",
        "lat": -0.02291303182057487,
        "lon": -40.25623315887353,
        "alt_km": 35780.616251516825,
        "timestamp": "2025-12-03T20:47:57.888383+00:00",
        "meta_object_name": "EUTELSAT 65 WEST A",
        "meta_object_id": "2016-014A",
        "meta_epoch": "2025-12-03T10:01:12.190080",
        "meta_mean_motion": 1.00270652,
        "meta_eccentricity": 0.000278,
        "meta_inclination": 0.0504,
        "meta_ra_of_asc_node": 344.5568,
        "meta_arg_of_pericenter": 274.9702,
        "meta_mean_anomaly": 258.0819,
        "meta_ephemeris_type": 0,
        "meta_classification_type": "U",
        "meta_norad_cat_id": 41382,
        "meta_element_set_no": 999,
        "meta_rev_at_epoch": 3557,
        "meta_bstar": 0,
        "meta_mean_motion_dot": -2.58e-06,
        "meta_mean_motion_ddot": 0,
        "tle_line1": "1 41382U 16014A   25337.41750220 -.00000258  00000+0  00000+0 0  9995",
        "tle_line2": "2 41382   0.0504 344.5568 0002780 274.9702 258.0819  1.00270652 35578"
      },
      "geometry": {
        "type": "Point",
        "coordinates": [
          -40.25623315887353,
          -0.02291303182057487
        ]
      }
    },
    {
      "type": "Feature",
      "properties": {
        "norad_id": 41589,
        "name": "EUTELSAT 117 WEST B",
        "group": "eutelsat",
        "lat": 0.01649309415485341,
        "lon": -92.08916779250721,
        "alt_km": 35787.263485746575,
        "timestamp": "2025-12-03T20:47:57.888395+00:00",
        "meta_object_name": "EUTELSAT 117 WEST B",
        "meta_object_id": "2016-038B",
        "meta_epoch": "2025-12-02T23:30:03.060576",
        "meta_mean_motion": 1.00267861,
        "meta_eccentricity": 1.928e-05,
        "meta_inclination": 0.0046,
        "meta_ra_of_asc_node": 146.1916,
        "meta_arg_of_pericenter": 23.0604,
        "meta_mean_anomaly": 138.3396,
        "meta_ephemeris_type": 0,
        "meta_classification_type": "U",
        "meta_norad_cat_id": 41589,
        "meta_element_set_no": 999,
        "meta_rev_at_epoch": 3469,
        "meta_bstar": 0,
        "meta_mean_motion_dot": 8e-08,
        "meta_mean_motion_ddot": 0,
        "tle_line1": "1 41589U 16038B   25336.97920209  .00000008  00000+0  00000+0 0  9998",
        "tle_line2": "2 41589   0.0046 146.1916 0000192  23.0604 138.3396  1.00267861 34690"
      },
      "geometry": {
        "type": "Point",
        "coordinates": [
          -92.08916779250721,
          0.01649309415485341
        ]
      }
    },
    {
      "type": "Feature",
      "properties": {
        "norad_id": 42741,
        "name": "EUTELSAT 172B",
        "group": "eutelsat",
        "lat": 0.00459211511520584,
        "lon": -163.08635052604123,
        "alt_km": 35785.50952691205,
        "timestamp": "2025-12-03T20:47:57.888408+00:00",
        "meta_object_name": "EUTELSAT 172B",
        "meta_object_id": "2017-029B",
        "meta_epoch": "2025-12-03T11:53:38.524992",
        "meta_mean_motion": 1.00271157,
        "meta_eccentricity": 1.91e-05,
        "meta_inclination": 0.0204,
        "meta_ra_of_asc_node": 138.9555,
        "meta_arg_of_pericenter": 82.4231,
        "meta_mean_anomaly": 201.6143,
        "meta_ephemeris_type": 0,
        "meta_classification_type": "U",
        "meta_norad_cat_id": 42741,
        "meta_element_set_no": 999,
        "meta_rev_at_epoch": 3176,
        "meta_bstar": 0,
        "meta_mean_motion_dot": 1.3e-07,
        "meta_mean_motion_ddot": 0,
        "tle_line1": "1 42741U 17029B   25337.49558478  .00000013  00000+0  00000+0 0  9999",
        "tle_line2": "2 42741   0.0204 138.9555 0000191  82.4231 201.6143  1.00271157 31761"
      },
      "geometry": {
        "type": "Point",
        "coordinates": [
          -163.08635052604123,
          0.00459211511520584
        ]
      }
    }
  ]
}